*******************************************************************************
JPL/HORIZONS               914 Palisana (A919 NC)          2020-Jun-22 09:30:34
Rec #:     914 (+COV) Soln.date: 2020-Feb-22_15:40:16   # obs: 2333 (1931-2020)
 
IAU76/J2000 helio. ecliptic osc. elements (au, days, deg., period=Julian yrs):
 
  EPOCH=  2454783.5 ! 2008-Nov-13.00 (TDB)         Residual RMS= .23517
   EC= .2131311301790218   QR= 1.933955716445226   TP= 2454503.8831988233
   OM= 255.8791431334409   W=  48.59038473199519   IN= 25.22186232129663
   A= 2.457786539306382    MA= 71.52388478229985   ADIST= 2.981617362167538
   PER= 3.85323            N= .255792508           ANGMOM= .026348663
   DAN= 2.05626            DDN= 2.73116            L= 301.6086216
   B= 18.6383388           MOID= .98141998         TP= 2008-Feb-07.3831988233
 
Asteroid physical parameters (km, seconds, rotational period in hours):
   GM= n.a.                RAD= 38.095             ROTPER= 15.922
   H= 9.2                  G= .150                 B-V= .741
                           ALBEDO= .095            STYP= CU
 
ASTEROID comments: 
1: soln ref.= JPL#41, OCC=0
2: source=ORB
*******************************************************************************
 
 
*******************************************************************************
Ephemeris / WWW_USER Mon Jun 22 09:30:34 2020 Pasadena, USA      / Horizons
*******************************************************************************
Target body name: 914 Palisana (A919 NC)          {source: JPL#41}
Center body name: Solar System Barycenter (0)     {source: DE431}
Center-site name: BODY CENTER
*******************************************************************************
Start time      : A.D. 1969-Jun-28 00:00:00.0000 TDB
Stop  time      : A.D. 2071-May-04 00:00:00.0000 TDB
Step-size       : 7200 minutes
*******************************************************************************
Center geodetic : 0.00000000,0.00000000,0.0000000 {E-lon(deg),Lat(deg),Alt(km)}
Center cylindric: 0.00000000,0.00000000,0.0000000 {E-lon(deg),Dxy(km),Dz(km)}
Center radii    : (undefined)                                                  
Small perturbers: Yes                             {source: SB431-N16}
Output units    : AU-D
Output type     : GEOMETRIC cartesian states
Output format   : 2 (position and velocity)
Reference frame : Ecliptic of J2000.0
*******************************************************************************
Initial IAU76/J2000 heliocentric ecliptic osculating elements (au, days, deg.):
  EPOCH=  2454783.5 ! 2008-Nov-13.00 (TDB)         Residual RMS= .23517        
   EC= .2131311301790218   QR= 1.933955716445226   TP= 2454503.8831988233      
   OM= 255.8791431334409   W=  48.59038473199519   IN= 25.22186232129663       
  Equivalent ICRF heliocentric equatorial cartesian coordinates (au, au/d):
   X= 1.696280279008115E+00  Y= 1.224412120518378E+00  Z= 1.176093598715019E+00
  VX=-4.621222666843772E-03 VY= 1.019941465651139E-02 VZ= 9.040443940098925E-04
Asteroid physical parameters (km, seconds, rotational period in hours):        
   GM= n.a.                RAD= 38.095             ROTPER= 15.922              
   H= 9.2                  G= .150                 B-V= .741                   
                           ALBEDO= .095            STYP= CU                    
*******************************************************************************
            JDTDB,            Calendar Date (TDB),        delta-T,                      X,                      Y,                      Z,                     VX,                     VY,                     VZ,
******************************************************************************************************************************************************************************************************************
$$SOE
2476240.500000000, A.D. 2067-Aug-13 00:00:00.0000,      69.182992, -1.068332426802334E+00,  2.665394093366806E+00, -8.059480046810766E-01, -7.536418689401182E-03, -3.482232796783872E-03, -3.029974384953247E-03,
2476245.500000000, A.D. 2067-Aug-18 00:00:00.0000,      69.182883, -1.105863303815978E+00,  2.647611946214989E+00, -8.209846268370696E-01, -7.475603260383388E-03, -3.630411446337594E-03, -2.984549580134316E-03,
2476250.500000000, A.D. 2067-Aug-23 00:00:00.0000,      69.182780, -1.143085182332290E+00,  2.629092133280468E+00, -8.357922577392045E-01, -7.412821565804511E-03, -3.777297464786948E-03, -2.938379120231846E-03,
2476255.500000000, A.D. 2067-Aug-28 00:00:00.0000,      69.182685, -1.179988264626152E+00,  2.609841142522924E+00, -8.503671874378768E-01, -7.348086941733889E-03, -3.922880904085230E-03, -2.891470290579342E-03,
2476260.500000000, A.D. 2067-Sep-02 00:00:00.0000,      69.182601, -1.216562818089272E+00,  2.589865512057565E+00, -8.647057417430123E-01, -7.281412101136610E-03, -4.067151646172746E-03, -2.843830111198535E-03,
2476265.500000000, A.D. 2067-Sep-07 00:00:00.0000,      69.182528, -1.252799172149032E+00,  2.569171831063266E+00, -8.788042809205324E-01, -7.212809147586278E-03, -4.210099379819025E-03, -2.795465345984166E-03,
2476270.500000000, A.D. 2067-Sep-12 00:00:00.0000,      69.182466, -1.288687715255418E+00,  2.547766740805464E+00, -8.926591984343741E-01, -7.142289588790476E-03, -4.351713577866130E-03, -2.746382511743007E-03,
2476275.500000000, A.D. 2067-Sep-17 00:00:00.0000,      69.182414, -1.324218891935182E+00,  2.525656935771955E+00, -9.062669197333723E-01, -7.069864349967254E-03, -4.491983474820378E-03, -2.696587887102017E-03,
2476280.500000000, A.D. 2067-Sep-22 00:00:00.0000,      69.182372, -1.359383199912580E+00,  2.502849164919964E+00, -9.196239010823881E-01, -6.995543787102021E-03, -4.630898044741635E-03, -2.646087521301149E-03,
2476285.500000000, A.D. 2067-Sep-27 00:00:00.0000,      69.182342, -1.394171187296152E+00,  2.479350233033120E+00, -9.327266284371426E-01, -6.919337700107609E-03, -4.768445979381386E-03, -2.594887242886044E-03,
2476290.500000000, A.D. 2067-Oct-02 00:00:00.0000,      69.182324, -1.428573449831087E+00,  2.455167002187228E+00, -9.455716163622951E-01, -6.841255345906305E-03, -4.904615666525454E-03, -2.542992668313902E-03,
2476295.500000000, A.D. 2067-Oct-07 00:00:00.0000,      69.182321, -1.462580628216850E+00,  2.430306393323872E+00, -9.581554069923537E-01, -6.761305451453447E-03, -5.039395168505737E-03, -2.490409210481989E-03,
2476300.500000000, A.D. 2067-Oct-12 00:00:00.0000,      69.182330, -1.496183405489846E+00,  2.404775387931114E+00, -9.704745690350521E-01, -6.679496226737341E-03, -5.172772200851476E-03, -2.437142087189471E-03,
2476305.500000000, A.D. 2067-Oct-17 00:00:00.0000,      69.182351, -1.529372504471169E+00,  2.378581029830666E+00, -9.825256968169369E-01, -6.595835377830378E-03, -5.304734111035166E-03, -2.383196329570408E-03,
2476310.500000000, A.D. 2067-Oct-22 00:00:00.0000,      69.182382, -1.562138685279956E+00,  2.351730427071329E+00, -9.943054093712717E-01, -6.510330120094446E-03, -5.435267857183598E-03, -2.328576790613493E-03,
2476315.500000000, A.D. 2067-Oct-27 00:00:00.0000,      69.182425, -1.594472742913097E+00,  2.324230753929467E+00, -1.005810349569074E+00, -6.422987191469607E-03, -5.564359986525986E-03, -2.273288153905365E-03,
2476320.500000000, A.D. 2067-Nov-01 00:00:00.0000,      69.182481, -1.626365504890773E+00,  2.296089253017879E+00, -1.017037183294106E+00, -6.333812865457840E-03, -5.691996613642575E-03, -2.217334942392289E-03,
2476325.500000000, A.D. 2067-Nov-06 00:00:00.0000,      69.182550, -1.657807828966006E+00,  2.267313237502925E+00, -1.027982598660821E+00, -6.242812963818910E-03, -5.818163398985494E-03, -2.160721526772387E-03,
2476330.500000000, A.D. 2067-Nov-11 00:00:00.0000,      69.182630, -1.688790600898299E+00,  2.237910093428194E+00, -1.038643305273668E+00, -6.149992869609311E-03, -5.942845527667556E-03, -2.103452133739525E-03,
2476335.500000000, A.D. 2067-Nov-16 00:00:00.0000,      69.182720, -1.719304732293826E+00,  2.207887282144701E+00, -1.049016033528307E+00, -6.055357540720307E-03, -6.066027687989052E-03, -2.045530854541084E-03,
2476340.500000000, A.D. 2067-Nov-21 00:00:00.0000,      69.182817, -1.749341158513862E+00,  2.177252342849546E+00, -1.059097533956433E+00, -5.958911523590043E-03, -6.187694049535604E-03, -1.986961653834417E-03,
2476345.500000000, A.D. 2067-Nov-26 00:00:00.0000,      69.182924, -1.778890836651884E+00,  2.146012895234877E+00, -1.068884576615240E+00, -5.860658966960078E-03, -6.307828240987036E-03, -1.927748378661468E-03,
2476350.500000000, A.D. 2067-Dec-01 00:00:00.0000,      69.183040, -1.807944743579710E+00,  2.114176642248321E+00, -1.078373950521911E+00, -5.760603635752939E-03, -6.426413327722110E-03, -1.867894767490958E-03,
2476355.500000000, A.D. 2067-Dec-06 00:00:00.0000,      69.183165, -1.836493874063513E+00,  2.081751372965922E+00, -1.087562463133558E+00, -5.658748925157869E-03, -6.543431789206454E-03, -1.807404459359738E-03,
2476360.500000000, A.D. 2067-Dec-11 00:00:00.0000,      69.183296, -1.864529238950924E+00,  2.048744965578763E+00, -1.096446939873204E+00, -5.555097874985143E-03, -6.658865496123624E-03, -1.746281003155317E-03,
2476365.500000000, A.D. 2067-Dec-16 00:00:00.0000,      69.183432, -1.892041863430659E+00,  2.015165390494666E+00, -1.105024223702600E+00, -5.449653184330524E-03, -6.772695687205865E-03, -1.684527867075935E-03,
2476370.500000000, A.D. 2067-Dec-21 00:00:00.0000,      69.183570, -1.919022785366316E+00,  1.981020713556563E+00, -1.113291174742857E+00, -5.342417226582078E-03, -6.884902945729921E-03, -1.622148448294330E-03,
2476375.500000000, A.D. 2067-Dec-26 00:00:00.0000,      69.183712, -1.945463053706125E+00,  1.946319099379293E+00, -1.121244669943937E+00, -5.233392064801034E-03, -6.995467175646933E-03, -1.559146082847476E-03,
